QIANFAN-89              
1 63175U 25046S   26001.13350028  .00000271  00000+0  40015-3 0  9992
2 63175  88.9781 318.0318 0018538  70.1165 290.1981 13.50983575 50027
QIANFAN-90              
1 63176U 25046T   26001.08816995  .00000274  00000+0  40510-3 0  9990
2 63176  88.9780 318.0088 0015457  68.8685 291.4116 13.50983595 50036
QIANFAN-91              
1 66033U 25233A   26001.14017770  .00000174  00000+0  22459-3 0  9995
2 66033  88.9937  60.1349 0015157 348.3214  11.7588 13.57811009 10625
QIANFAN-92              
1 66034U 25233B   26001.04715024  .00000049  00000+0  55610-4 0  9999
2 66034  88.9916  60.1398 0020558 342.0658  17.9767 13.53700726 10616
QIANFAN-93              
1 66035U 25233C   26001.14285789  .00000059  00000+0  68036-4 0  9998
2 66035  88.9946  60.1370 0013610 347.9962  12.0865 13.55665718 10622
QIANFAN-94              
1 66036U 25233D   26001.16461041  .00000206  00000+0  22618-3 0  9997
2 66036  88.9945  60.1046 0014586 345.4464  14.6275 13.68548013 10642
QIANFAN-95              
1 66037U 25233E   26001.19764924  .00000399  00000+0  23062-3 0  9994
2 66037  88.9943  59.8708 0013512 348.8670  11.2212 14.07043303 10779
QIANFAN-96              
1 66038U 25233F   26001.01913576  .00000042  00000+0  41499-4 0  9995
2 66038  88.9927  60.1558 0012635 348.6692  11.4176 13.56830063 10600
